OBJECT_NAME,OBJECT_ID,EPOCH,MEAN_MOTION,ECCENTRICITY,INCLINATION,RA_OF_ASC_NODE,ARG_OF_PERICENTER,MEAN_ANOMALY,EPHEMERIS_TYPE,CLASSIFICATION_TYPE,NORAD_CAT_ID,ELEMENT_SET_NO,REV_AT_EPOCH,BSTAR,MEAN_MOTION_DOT,MEAN_MOTION_DDOT
STARLINK-37508,2026-117V,2026-06-07T12:00:04.000320,15.94036828,.0000875,53.1565,291.9030,64.1598,8.7315,0,U,69257,999,260,-.6241E-2,-.2337989E-1,.14931E-2
STARLINK-37276,2026-117W,2026-06-07T12:00:04.000320,15.99160016,.0000734,53.1560,291.8095,75.8062,41.7150,0,U,69258,999,260,-.41291E-2,-.2051403E-1,.12322E-2
STARLINK-37518,2026-117X,2026-06-07T12:00:04.000320,15.99070651,.0000794,53.1557,291.7984,76.5237,46.7596,0,U,69259,999,261,-.41397E-2,-.2046376E-1,.12252E-2
STARLINK-37478,2026-117Y,2026-06-07T12:00:04.000320,15.98168967,.000085,53.1559,291.7983,68.4916,54.8885,0,U,69260,999,261,-.45707E-2,-.2146603E-1,.1328E-2
STARLINK-37506,2026-117Z,2026-06-07T12:00:04.000320,15.98179163,.0000946,53.1556,291.7887,67.1155,60.7633,0,U,69261,999,261,-.46578E-2,-.2188334E-1,.13779E-2
STARLINK-37503,2026-117AA,2026-06-07T12:00:04.000320,15.98083908,.000096,53.1558,291.7766,65.5285,67.8871,0,U,69262,999,261,-.47907E-2,-.2238306E-1,.14373E-2
STARLINK-37502,2026-117AB,2026-06-07T12:00:04.000320,15.97887771,.0000985,53.1556,291.7718,64.0810,71.4261,0,U,69263,999,261,-.47071E-2,-.2175964E-1,.13585E-2
STARLINK-37486,2026-117AC,2026-06-07T12:00:04.000320,15.97958388,.0000913,53.1553,291.7599,65.9739,75.3985,0,U,69264,999,261,-.46628E-2,-.2164101E-1,.13455E-2
STARLINK-37435,2026-117AD,2026-06-07T12:00:04.000320,15.98477994,.0000963,53.1555,291.7387,67.7134,83.3426,0,U,69265,999,261,-.44741E-2,-.2138062E-1,.13226E-2
STARLINK-37464,2026-117AE,2026-06-07T12:00:04.000320,15.98981916,.0000981,53.1554,291.7180,62.5289,98.4156,0,U,69266,999,261,-.43742E-2,-.2150333E-1,.13449E-2
KUIPER-00282,2026-118A,2026-06-07T12:00:04.000320,15.35126413,.0011742,51.8576,100.2352,146.9543,105.1693,0,U,69267,999,186,-.67076E-3,-.23586E-3,0
KUIPER-00383,2026-118B,2026-06-07T12:00:04.000320,15.35699569,.0010807,51.8578,100.2073,146.6761,119.0404,0,U,69268,999,192,-.83879E-2,-.28592E-2,0
KUIPER-00527,2026-118C,2026-06-07T12:00:04.000320,15.35889400,.0009605,51.8609,100.1862,139.5393,136.8639,0,U,69269,999,130,-.80456E-3,-.28863E-3,0
KUIPER-00562,2026-118D,2026-06-07T12:00:04.000320,15.38429003,.0001904,51.8719,100.0350,88.2551,256.3902,0,U,69270,999,245,-.37711E-3,-.14889E-3,0
KUIPER-00570,2026-118E,2026-06-07T12:00:04.000320,15.35486505,.001081,51.8566,100.2074,147.5916,118.0544,0,U,69271,999,204,-.6243E-3,-.22227E-3,0
KUIPER-00572,2026-118F,2026-06-07T12:00:04.000320,15.36793573,.0007418,51.8666,100.1478,136.4401,158.3522,0,U,69272,999,179,-.54945E-3,-.20421E-3,0
KUIPER-00581,2026-118G,2026-06-07T12:00:04.000320,15.36473713,.0008996,51.8645,100.1685,140.9750,144.0468,0,U,69273,999,258,-.57437E-3,-.21121E-3,0
KUIPER-00584,2026-118H,2026-06-07T12:00:04.000320,15.35281006,.0011127,51.8593,100.2264,153.4883,103.0435,0,U,69274,999,130,-.68688E-3,-.24254E-3,0
KUIPER-00587,2026-118J,2026-06-07T12:00:04.000320,15.36446795,.0008436,51.8619,100.1625,142.6799,145.4242,0,U,69275,999,130,-.56676E-3,-.20826E-3,0
KUIPER-00590,2026-118K,2026-06-07T12:00:04.000320,15.37676295,.0004337,51.8684,100.0918,124.6294,197.1696,0,U,69276,999,234,-.42672E-3,-.16398E-3,0
KUIPER-00592,2026-118L,2026-06-07T12:00:04.000320,15.37888349,.0003702,51.8704,100.0758,102.6312,225.5252,0,U,69277,999,130,-.44805E-3,-.17311E-3,0
KUIPER-00593,2026-118M,2026-06-07T12:00:04.000320,15.37800303,.0004016,51.8710,100.0763,120.1864,207.0546,0,U,69278,999,255,-.42706E-3,-.16475E-3,0
KUIPER-00594,2026-118N,2026-06-07T12:00:04.000320,15.38610532,.0001411,51.8717,100.0266,54.3253,296.3129,0,U,69279,999,130,-.36761E-3,-.14608E-3,0
KUIPER-00595,2026-118P,2026-06-07T12:00:04.000320,15.38290276,.0001952,51.8709,100.0459,101.8920,240.5256,0,U,69280,999,252,-.39211E-3,-.15396E-3,0
KUIPER-00596,2026-118Q,2026-06-07T12:00:04.000320,15.35621493,.0012013,51.8541,100.2171,148.9866,111.3421,0,U,69281,999,179,-.64157E-3,-.22938E-3,0
KUIPER-00597,2026-118R,2026-06-07T12:00:04.000320,15.36989404,.0007039,51.8643,100.1328,136.3257,166.2894,0,U,69282,999,130,-.50111E-3,-.18777E-3,0
KUIPER-00599,2026-118S,2026-06-07T12:00:04.000320,15.37164127,.0006349,51.8686,100.1214,129.2579,177.7976,0,U,69283,999,159,-.50896E-3,-.19168E-3,0
KUIPER-00600,2026-118T,2026-06-07T12:00:04.000320,15.36553083,.0009024,51.8633,100.1590,137.1330,152.6335,0,U,69284,999,237,-.58622E-3,-.21602E-3,0
KUIPER-00601,2026-118U,2026-06-07T12:00:04.000320,15.37488417,.0004833,51.8699,100.1017,123.3214,192.5934,0,U,69285,999,240,-.46686E-3,-.17795E-3,0
KUIPER-00602,2026-118V,2026-06-07T12:00:04.000320,15.37927703,.0003084,51.8698,100.0706,112.3326,218.9884,0,U,69286,999,130,-.41448E-3,-.16065E-3,0
