STARLINK-37508          
1 69257U 26117V   26158.50004630 -.02337989  14931-2 -62410-2 0  9994
2 69257  53.1565 291.9030 0000875  64.1598   8.7315 15.94036828  2601
STARLINK-37276          
1 69258U 26117W   26158.50004630 -.02051403  12322-2 -41291-2 0  9995
2 69258  53.1560 291.8095 0000734  75.8062  41.7150 15.99160016  2602
STARLINK-37518          
1 69259U 26117X   26158.50004630 -.02046376  12252-2 -41397-2 0  9998
2 69259  53.1557 291.7984 0000794  76.5237  46.7596 15.99070651  2618
STARLINK-37478          
1 69260U 26117Y   26158.50004630 -.02146603  13280-2 -45707-2 0  9995
2 69260  53.1559 291.7983 0000850  68.4916  54.8885 15.98168967  2616
STARLINK-37506          
1 69261U 26117Z   26158.50004630 -.02188334  13779-2 -46578-2 0  9993
2 69261  53.1556 291.7887 0000946  67.1155  60.7633 15.98179163  2611
STARLINK-37503          
1 69262U 26117AA  26158.50004630 -.02238306  14373-2 -47907-2 0  9997
2 69262  53.1558 291.7766 0000960  65.5285  67.8871 15.98083908  2615
STARLINK-37502          
1 69263U 26117AB  26158.50004630 -.02175964  13585-2 -47071-2 0  9994
2 69263  53.1556 291.7718 0000985  64.0810  71.4261 15.97887771  2619
STARLINK-37486          
1 69264U 26117AC  26158.50004630 -.02164101  13455-2 -46628-2 0  9999
2 69264  53.1553 291.7599 0000913  65.9739  75.3985 15.97958388  2614
STARLINK-37435          
1 69265U 26117AD  26158.50004630 -.02138062  13226-2 -44741-2 0  9997
2 69265  53.1555 291.7387 0000963  67.7134  83.3426 15.98477994  2615
STARLINK-37464          
1 69266U 26117AE  26158.50004630 -.02150333  13449-2 -43742-2 0  9990
2 69266  53.1554 291.7180 0000981  62.5289  98.4156 15.98981916  2611
KUIPER-00282            
1 69267U 26118A   26158.50004630 -.00023586  00000+0 -67076-3 0  9992
2 69267  51.8576 100.2352 0011742 146.9543 105.1693 15.35126413  1865
KUIPER-00383            
1 69268U 26118B   26158.50004630 -.00285920  00000+0 -83879-2 0  9993
2 69268  51.8578 100.2073 0010807 146.6761 119.0404 15.35699569  1926
KUIPER-00527            
1 69269U 26118C   26158.50004630 -.00028863  00000+0 -80456-3 0  9994
2 69269  51.8609 100.1862 0009605 139.5393 136.8639 15.35889400  1307
KUIPER-00562            
1 69270U 26118D   26158.50004630 -.00014889  00000+0 -37711-3 0  9995
2 69270  51.8719 100.0350 0001904  88.2551 256.3902 15.38429003  2452
KUIPER-00570            
1 69271U 26118E   26158.50004630 -.00022227  00000+0 -62430-3 0  9997
2 69271  51.8566 100.2074 0010810 147.5916 118.0544 15.35486505  2046
KUIPER-00572            
1 69272U 26118F   26158.50004630 -.00020421  00000+0 -54945-3 0  9994
2 69272  51.8666 100.1478 0007418 136.4401 158.3522 15.36793573  1792
KUIPER-00581            
1 69273U 26118G   26158.50004630 -.00021121  00000+0 -57437-3 0  9992
2 69273  51.8645 100.1685 0008996 140.9750 144.0468 15.36473713  2589
KUIPER-00584            
1 69274U 26118H   26158.50004630 -.00024254  00000+0 -68688-3 0  9993
2 69274  51.8593 100.2264 0011127 153.4883 103.0435 15.35281006  1301
KUIPER-00587            
1 69275U 26118J   26158.50004630 -.00020826  00000+0 -56676-3 0  9999
2 69275  51.8619 100.1625 0008436 142.6799 145.4242 15.36446795  1301
KUIPER-00590            
1 69276U 26118K   26158.50004630 -.00016398  00000+0 -42672-3 0  9990
2 69276  51.8684 100.0918 0004337 124.6294 197.1696 15.37676295  2347
KUIPER-00592            
1 69277U 26118L   26158.50004630 -.00017311  00000+0 -44805-3 0  9997
2 69277  51.8704 100.0758 0003702 102.6312 225.5252 15.37888349  1309
KUIPER-00593            
1 69278U 26118M   26158.50004630 -.00016475  00000+0 -42706-3 0  9996
2 69278  51.8710 100.0763 0004016 120.1864 207.0546 15.37800303  2552
KUIPER-00594            
1 69279U 26118N   26158.50004630 -.00014608  00000+0 -36761-3 0  9997
2 69279  51.8717 100.0266 0001411  54.3253 296.3129 15.38610532  1308
KUIPER-00595            
1 69280U 26118P   26158.50004630 -.00015396  00000+0 -39211-3 0  9997
2 69280  51.8709 100.0459 0001952 101.8920 240.5256 15.38290276  2520
KUIPER-00596            
1 69281U 26118Q   26158.50004630 -.00022938  00000+0 -64157-3 0  9995
2 69281  51.8541 100.2171 0012013 148.9866 111.3421 15.35621493  1792
KUIPER-00597            
1 69282U 26118R   26158.50004630 -.00018777  00000+0 -50111-3 0  9997
2 69282  51.8643 100.1328 0007039 136.3257 166.2894 15.36989404  1306
KUIPER-00599            
1 69283U 26118S   26158.50004630 -.00019168  00000+0 -50896-3 0  9993
2 69283  51.8686 100.1214 0006349 129.2579 177.7976 15.37164127  1596
KUIPER-00600            
1 69284U 26118T   26158.50004630 -.00021602  00000+0 -58622-3 0  9995
2 69284  51.8633 100.1590 0009024 137.1330 152.6335 15.36553083  2372
KUIPER-00601            
1 69285U 26118U   26158.50004630 -.00017795  00000+0 -46686-3 0  9991
2 69285  51.8699 100.1017 0004833 123.3214 192.5934 15.37488417  2401
KUIPER-00602            
1 69286U 26118V   26158.50004630 -.00016065  00000+0 -41448-3 0  9992
2 69286  51.8698 100.0706 0003084 112.3326 218.9884 15.37927703  1305
